{
    "links": {
        "self": "http://www.neowsapp.com/rest/v1/neo/3753716?api_key=iIulBulltgU6a56xZRHN4H3l9WmuAYTsLGpBGhQ2"
    },
    "id": "3753716",
    "neo_reference_id": "3753716",
    "name": "(2016 LF2)",
    "designation": "2016 LF2",
    "nasa_jpl_url": "http://ssd.jpl.nasa.gov/sbdb.cgi?sstr=3753716",
    "absolute_magnitude_h": 22.4,
    "estimated_diameter": {
        "kilometers": {
            "estimated_diameter_min": 0.0880146521,
            "estimated_diameter_max": 0.1968067451
        },
        "meters": {
            "estimated_diameter_min": 88.0146520901,
            "estimated_diameter_max": 196.8067450894
        },
        "miles": {
            "estimated_diameter_min": 0.0546897524,
            "estimated_diameter_max": 0.122290004
        },
        "feet": {
            "estimated_diameter_min": 288.7619911632,
            "estimated_diameter_max": 645.6914415591
        }
    },
    "is_potentially_hazardous_asteroid": false,
    "close_approach_data": [
        {
            "close_approach_date": "2016-06-10",
            "close_approach_date_full": "2016-Jun-10 20:17",
            "epoch_date_close_approach": 1465589820000,
            "relative_velocity": {
                "kilometers_per_second": "20.3345736153",
                "kilometers_per_hour": "73204.4650152542",
                "miles_per_hour": "45486.4077201728"
            },
            "miss_distance": {
                "astronomical": "0.08961679",
                "lunar": "34.86093131",
                "kilometers": "13406480.9002373",
                "miles": "8330400.94558274"
            },
            "orbiting_body": "Earth"
        }
    ],
    "orbital_data": {
        "orbit_id": "6",
        "orbit_determination_date": "2018-02-10 07:07:55",
        "first_observation_date": "2016-06-04",
        "last_observation_date": "2016-06-09",
        "data_arc_in_days": 5,
        "observations_used": 60,
        "orbit_uncertainty": "9",
        "minimum_orbit_intersection": ".0206342",
        "jupiter_tisserand_invariant": "2.813",
        "epoch_osculation": "2457545.5",
        "eccentricity": ".6329821439248144",
        "semi_major_axis": "2.799223716329932",
        "inclination": "32.8752284327465",
        "ascending_node_longitude": "74.45316674098484",
        "orbital_period": "1710.625101109393",
        "perihelion_distance": "1.027365087042225",
        "perihelion_argument": "191.5880829622135",
        "aphelion_distance": "4.571082345617639",
        "perihelion_time": "2457559.165094075552",
        "mean_anomaly": "357.1241893597795",
        "mean_motion": ".2104493847111965",
        "equinox": "J2000",
        "orbit_class": {
            "orbit_class_type": "AMO",
            "orbit_class_description": "Near-Earth asteroid orbits similar to that of 1221 Amor",
            "orbit_class_range": "1.017 AU < q (perihelion) < 1.3 AU"
        }
    },
    "is_sentry_object": false
}